{
  "norad_id": 65674,
  "name": "STARLINK-35254",
  "history": [
    {
      "epoch": "2026-03-28T20:49:38.780544Z",
      "apogee_km": 549.8624207907233,
      "perigee_km": 549.1244895946347,
      "latitude_deg": 6.643663468880313e-05,
      "longitude_deg": -5.628182861981888,
      "height_km": 552.8441502745767,
      "semi_major_axis_km": 6927.630455192679,
      "eccentricity": 5.326e-05,
      "inclination_deg": 97.6039,
      "raan_deg": 133.0655,
      "arg_perigee_deg": 140.8215,
      "mean_anomaly_deg": 219.3051,
      "mean_motion_rev_day": 15.0565577
    },
    {
      "epoch": "2026-03-29T03:12:26.704224Z",
      "apogee_km": 549.8994562717762,
      "perigee_km": 549.0847670882431,
      "latitude_deg": -6.704702325787194e-05,
      "longitude_deg": -101.32796354226267,
      "height_km": 552.8805723387477,
      "semi_major_axis_km": 6927.629111680009,
      "eccentricity": 5.88e-05,
      "inclination_deg": 97.604,
      "raan_deg": 133.3274,
      "arg_perigee_deg": 142.6435,
      "mean_anomaly_deg": 217.4832,
      "mean_motion_rev_day": 15.05656208
    },
    {
      "epoch": "2026-03-30T01:32:14.676000Z",
      "apogee_km": 549.9629836446693,
      "perigee_km": 548.9924248246061,
      "latitude_deg": -4.853272863448977e-05,
      "longitude_deg": -76.27780807791629,
      "height_km": 552.8665655894184,
      "semi_major_axis_km": 6927.614704234637,
      "eccentricity": 7.005e-05,
      "inclination_deg": 97.6039,
      "raan_deg": 134.2445,
      "arg_perigee_deg": 131.9555,
      "mean_anomaly_deg": 228.1731,
      "mean_motion_rev_day": 15.05660905
    },
    {
      "epoch": "2026-03-30T14:17:50.650368Z",
      "apogee_km": 549.9308512258403,
      "perigee_km": 549.0464705339718,
      "latitude_deg": 1.1436130682180855e-05,
      "longitude_deg": 92.32255708777319,
      "height_km": 552.9565538340305,
      "semi_major_axis_km": 6927.625660879906,
      "eccentricity": 6.383e-05,
      "inclination_deg": 97.6042,
      "raan_deg": 134.7688,
      "arg_perigee_deg": 155.7191,
      "mean_anomaly_deg": 204.4066,
      "mean_motion_rev_day": 15.05657333
    },
    {
      "epoch": "2026-03-31T20:36:09.264384Z",
      "apogee_km": 550.0641792356664,
      "perigee_km": 548.9571411395673,
      "latitude_deg": 4.4638542617530974e-05,
      "longitude_deg": -2.254393178069999,
      "height_km": 552.8943559518085,
      "semi_major_axis_km": 6927.647660187617,
      "eccentricity": 7.99e-05,
      "inclination_deg": 97.6036,
      "raan_deg": 136.014,
      "arg_perigee_deg": 125.2543,
      "mean_anomaly_deg": 234.8759,
      "mean_motion_rev_day": 15.05650161
    },
    {
      "epoch": "2026-04-01T20:31:39.139104Z",
      "apogee_km": 550.106424714204,
      "perigee_km": 548.880234145895,
      "latitude_deg": -7.183628584394638e-05,
      "longitude_deg": -1.128617868508172,
      "height_km": 552.9188831549493,
      "semi_major_axis_km": 6927.63032943005,
      "eccentricity": 8.85e-05,
      "inclination_deg": 97.6034,
      "raan_deg": 136.9968,
      "arg_perigee_deg": 126.1207,
      "mean_anomaly_deg": 234.0101,
      "mean_motion_rev_day": 15.05655811
    },
    {
      "epoch": "2026-04-02T20:27:08.910144Z",
      "apogee_km": 550.0922085706279,
      "perigee_km": 548.8480103337697,
      "latitude_deg": -1.6437113783294712e-05,
      "longitude_deg": -0.002732673978328893,
      "height_km": 552.8816166843305,
      "semi_major_axis_km": 6927.6071094521985,
      "eccentricity": 8.98e-05,
      "inclination_deg": 97.6031,
      "raan_deg": 137.9793,
      "arg_perigee_deg": 123.948,
      "mean_anomaly_deg": 236.1832,
      "mean_motion_rev_day": 15.05663381
    },
    {
      "epoch": "2026-04-02T20:27:08.911008Z",
      "apogee_km": 550.0922778466984,
      "perigee_km": 548.8479410576992,
      "latitude_deg": -1.7402393463957315e-05,
      "longitude_deg": -0.002736155696196367,
      "height_km": 552.8816553818018,
      "semi_major_axis_km": 6927.6071094521985,
      "eccentricity": 8.981e-05,
      "inclination_deg": 97.6031,
      "raan_deg": 137.9793,
      "arg_perigee_deg": 123.948,
      "mean_anomaly_deg": 236.1832,
      "mean_motion_rev_day": 15.05663381
    },
    {
      "epoch": "2026-04-03T17:11:15.037728Z",
      "apogee_km": 550.1411565331346,
      "perigee_km": 548.8900224754698,
      "latitude_deg": 5.163731506148116e-05,
      "longitude_deg": 48.971969092434634,
      "height_km": 552.9931594588276,
      "semi_major_axis_km": 6927.652589504301,
      "eccentricity": 9.03e-05,
      "inclination_deg": 97.6022,
      "raan_deg": 138.8311,
      "arg_perigee_deg": 131.358,
      "mean_anomaly_deg": 228.7725,
      "mean_motion_rev_day": 15.05648554
    },
    {
      "epoch": "2026-04-04T20:18:09.300672Z",
      "apogee_km": 550.1805654364771,
      "perigee_km": 548.8213628679105,
      "latitude_deg": -1.851740799324507e-05,
      "longitude_deg": 2.2455054987115846,
      "height_km": 552.893582837056,
      "semi_major_axis_km": 6927.6379641521935,
      "eccentricity": 9.81e-05,
      "inclination_deg": 97.6024,
      "raan_deg": 139.9443,
      "arg_perigee_deg": 118.9246,
      "mean_anomaly_deg": 241.2079,
      "mean_motion_rev_day": 15.05653322
    },
    {
      "epoch": "2026-04-05T13:50:51.120384Z",
      "apogee_km": 550.1109186411722,
      "perigee_km": 548.8681024451816,
      "latitude_deg": 1.751940936195813e-05,
      "longitude_deg": 99.07160524558026,
      "height_km": 552.9721142313275,
      "semi_major_axis_km": 6927.626510543177,
      "eccentricity": 8.97e-05,
      "inclination_deg": 97.6024,
      "raan_deg": 140.6652,
      "arg_perigee_deg": 132.3168,
      "mean_anomaly_deg": 227.8135,
      "mean_motion_rev_day": 15.05657056
    },
    {
      "epoch": "2026-04-05T20:13:39.242784Z",
      "apogee_km": 550.1994426876208,
      "perigee_km": 548.8208409064036,
      "latitude_deg": 7.190643494451234e-05,
      "longitude_deg": 3.3711688645350217,
      "height_km": 552.9689031627752,
      "semi_major_axis_km": 6927.647141797012,
      "eccentricity": 9.95e-05,
      "inclination_deg": 97.6021,
      "raan_deg": 140.9273,
      "arg_perigee_deg": 124.9387,
      "mean_anomaly_deg": 235.1934,
      "mean_motion_rev_day": 15.0565033
    },
    {
      "epoch": "2026-04-06T02:36:27.255456Z",
      "apogee_km": 550.2159415039996,
      "perigee_km": 548.7790115608768,
      "latitude_deg": 0.00010209124589776674,
      "longitude_deg": -92.3288059271672,
      "height_km": 552.9283329470477,
      "semi_major_axis_km": 6927.6344765324375,
      "eccentricity": 0.00010371,
      "inclination_deg": 97.602,
      "raan_deg": 141.1894,
      "arg_perigee_deg": 120.7161,
      "mean_anomaly_deg": 239.4169,
      "mean_motion_rev_day": 15.05654459
    },
    {
      "epoch": "2026-04-07T15:17:33.304992Z",
      "apogee_km": 550.2015441468111,
      "perigee_km": 548.7993903234428,
      "latitude_deg": -8.466664356944469e-05,
      "longitude_deg": 77.3962084007424,
      "height_km": 552.9989345118163,
      "semi_major_axis_km": 6927.637467235127,
      "eccentricity": 0.0001012,
      "inclination_deg": 97.6016,
      "raan_deg": 142.6962,
      "arg_perigee_deg": 128.2867,
      "mean_anomaly_deg": 231.845,
      "mean_motion_rev_day": 15.05653484
    },
    {
      "epoch": "2026-04-08T13:37:21.178272Z",
      "apogee_km": 550.1712020276864,
      "perigee_km": 548.8401247663414,
      "latitude_deg": -4.331342998984187e-06,
      "longitude_deg": 102.44676385354637,
      "height_km": 553.0382919591572,
      "semi_major_axis_km": 6927.642663397014,
      "eccentricity": 9.607e-05,
      "inclination_deg": 97.6015,
      "raan_deg": 143.6133,
      "arg_perigee_deg": 134.7286,
      "mean_anomaly_deg": 225.4019,
      "mean_motion_rev_day": 15.0565179
    },
    {
      "epoch": "2026-04-09T08:45:45.245664Z",
      "apogee_km": 550.2875121723073,
      "perigee_km": 548.7189558705195,
      "latitude_deg": 4.6758459756950144e-05,
      "longitude_deg": 175.34642123747605,
      "height_km": 553.0762495821722,
      "semi_major_axis_km": 6927.640234021413,
      "eccentricity": 0.00011321,
      "inclination_deg": 97.6019,
      "raan_deg": 144.3993,
      "arg_perigee_deg": 130.4716,
      "mean_anomaly_deg": 229.661,
      "mean_motion_rev_day": 15.05652582
    },
    {
      "epoch": "2026-04-10T08:41:15.273312Z",
      "apogee_km": 550.2748143206145,
      "perigee_km": 548.7174823888654,
      "latitude_deg": -4.041400928090124e-05,
      "longitude_deg": 176.4713497460201,
      "height_km": 553.0954142528257,
      "semi_major_axis_km": 6927.63314835474,
      "eccentricity": 0.0001124,
      "inclination_deg": 97.6016,
      "raan_deg": 145.3819,
      "arg_perigee_deg": 133.4192,
      "mean_anomaly_deg": 226.7128,
      "mean_motion_rev_day": 15.05654892
    },
    {
      "epoch": "2026-04-11T13:23:51.064224Z",
      "apogee_km": 550.2325198570334,
      "perigee_km": 548.7541635421148,
      "latitude_deg": 2.8239814617134025e-05,
      "longitude_deg": 105.8216340249451,
      "height_km": 553.2155414566975,
      "semi_major_axis_km": 6927.630341699574,
      "eccentricity": 0.0001067,
      "inclination_deg": 97.6017,
      "raan_deg": 146.5604,
      "arg_perigee_deg": 152.828,
      "mean_anomaly_deg": 207.3003,
      "mean_motion_rev_day": 15.05655807
    },
    {
      "epoch": "2026-04-13T00:29:15.081216Z",
      "apogee_km": 550.3871781057069,
      "perigee_km": 548.6174433673868,
      "latitude_deg": 5.487263928416366e-05,
      "longitude_deg": -60.52933678168769,
      "height_km": 553.3697574330135,
      "semi_major_axis_km": 6927.639310736547,
      "eccentricity": 0.00012773,
      "inclination_deg": 97.601,
      "raan_deg": 148.0006,
      "arg_perigee_deg": 155.1413,
      "mean_anomaly_deg": 204.9876,
      "mean_motion_rev_day": 15.05652883
    }
  ]
}